[
    {
        "Altitude(m)": 611965.2062181015,
        "Argument of Periapsis(deg)": 0.0,
        "Eccentricity": 0.0,
        "Inclination(deg)": 60.0,
        "Latitude(deg)": 59.140224802828435,
        "Longitude(deg)": 13.969629313706264,
        "Mean Anomaly(deg)": 81.8182,
        "RAAN(deg)": 40.0,
        "Satellite Name": "Test1 181",
        "Satellite Number": 181,
        "Semi-Major Axis(m)": 6980739.136638005,
        "Time(s)": 0
    },
    {
        "Altitude(m)": 611995.8323985754,
        "Argument of Periapsis(deg)": 0.00010418945913296404,
        "Eccentricity": 0.0,
        "Inclination(deg)": 60.0,
        "Latitude(deg)": 59.28332701049959,
        "Longitude(deg)": 15.102992554028507,
        "Mean Anomaly(deg)": 82.43830614546184,
        "RAAN(deg)": 39.99957995086026,
        "Satellite Name": "Test1 181",
        "Satellite Number": 181,
        "Semi-Major Axis(m)": 6980739.136638005,
        "Time(s)": 10
    },
    {
        "Altitude(m)": 612024.1176935481,
        "Argument of Periapsis(deg)": 0.0002083789182659281,
        "Eccentricity": 0.0,
        "Inclination(deg)": 60.0,
        "Latitude(deg)": 59.41574716287179,
        "Longitude(deg)": 16.24587949765466,
        "Mean Anomaly(deg)": 83.05841229092367,
        "RAAN(deg)": 39.99915990172052,
        "Satellite Name": "Test1 181",
        "Satellite Number": 181,
        "Semi-Major Axis(m)": 6980739.136638005,
        "Time(s)": 20
    },
    {
        "Altitude(m)": 612050.0458838644,
        "Argument of Periapsis(deg)": 0.00031256837739889213,
        "Eccentricity": 0.0,
        "Inclination(deg)": 60.0,
        "Latitude(deg)": 59.53734583262673,
        "Longitude(deg)": 17.397662139690727,
        "Mean Anomaly(deg)": 83.67851843638552,
        "RAAN(deg)": 39.998739852580776,
        "Satellite Name": "Test1 181",
        "Satellite Number": 181,
        "Semi-Major Axis(m)": 6980739.136638005,
        "Time(s)": 30
    },
    {
        "Altitude(m)": 612073.6021106128,
        "Argument of Periapsis(deg)": 0.0004167578365318562,
        "Eccentricity": 0.0,
        "Inclination(deg)": 60.0,
        "Latitude(deg)": 59.647992848678975,
        "Longitude(deg)": 18.557676859007064,
        "Mean Anomaly(deg)": 84.29862458184732,
        "RAAN(deg)": 39.998319803441035,
        "Satellite Name": "Test1 181",
        "Satellite Number": 181,
        "Semi-Major Axis(m)": 6980739.136638005,
        "Time(s)": 40
    },
    {
        "Altitude(m)": 612094.7728821465,
        "Argument of Periapsis(deg)": 0.0005209472956648203,
        "Eccentricity": 0.0,
        "Inclination(deg)": 60.0,
        "Latitude(deg)": 59.74756794932833,
        "Longitude(deg)": 19.72522527713752,
        "Mean Anomaly(deg)": 84.91873072730917,
        "RAAN(deg)": 39.99789975430128,
        "Satellite Name": "Test1 181",
        "Satellite Number": 181,
        "Semi-Major Axis(m)": 6980739.136638005,
        "Time(s)": 50
    },
    {
        "Altitude(m)": 612113.5460804257,
        "Argument of Periapsis(deg)": 0.0006251367547977843,
        "Eccentricity": 0.0,
        "Inclination(deg)": 60.0,
        "Latitude(deg)": 59.83596140185268,
        "Longitude(deg)": 20.899576962981698,
        "Mean Anomaly(deg)": 85.53883687277099,
        "RAAN(deg)": 39.99747970516154,
        "Satellite Name": "Test1 181",
        "Satellite Number": 181,
        "Semi-Major Axis(m)": 6980739.136638005,
        "Time(s)": 60
    },
    {
        "Altitude(m)": 612129.9109667382,
        "Argument of Periapsis(deg)": 0.0007293262139307483,
        "Eccentricity": 0.0,
        "Inclination(deg)": 60.0,
        "Latitude(deg)": 59.913074581474326,
        "Longitude(deg)": 22.07997245988616,
        "Mean Anomaly(deg)": 86.15894301823282,
        "RAAN(deg)": 39.997059656021804,
        "Satellite Name": "Test1 181",
        "Satellite Number": 181,
        "Semi-Major Axis(m)": 6980739.136638005,
        "Time(s)": 70
    },
    {
        "Altitude(m)": 612143.8581867535,
        "Argument of Periapsis(deg)": 0.0008335156730637124,
        "Eccentricity": 0.0,
        "Inclination(deg)": 60.0,
        "Latitude(deg)": 59.978820502872274,
        "Longitude(deg)": 23.26562510607524,
        "Mean Anomaly(deg)": 86.77904916369464,
        "RAAN(deg)": 39.996639606882056,
        "Satellite Name": "Test1 181",
        "Satellite Number": 181,
        "Semi-Major Axis(m)": 6980739.136638005,
        "Time(s)": 80
    },
    {
        "Altitude(m)": 612155.3797749392,
        "Argument of Periapsis(deg)": 0.0009377051321966765,
        "Eccentricity": 0.0,
        "Inclination(deg)": 60.0,
        "Latitude(deg)": 60.033124297780304,
        "Longitude(deg)": 24.455724652357045,
        "Mean Anomaly(deg)": 87.39915530915648,
        "RAAN(deg)": 39.996219557742315,
        "Satellite Name": "Test1 181",
        "Satellite Number": 181,
        "Semi-Major Axis(m)": 6980739.136638005,
        "Time(s)": 90
    },
    {
        "Altitude(m)": 612164.4691582985,
        "Argument of Periapsis(deg)": 0.0010418945913296407,
        "Eccentricity": 0.0,
        "Inclination(deg)": 60.0,
        "Latitude(deg)": 60.07592363269953,
        "Longitude(deg)": 25.649441136931497,
        "Mean Anomaly(deg)": 88.01926145461832,
        "RAAN(deg)": 39.99579950860257,
        "Satellite Name": "Test1 181",
        "Satellite Number": 181,
        "Semi-Major Axis(m)": 6980739.136638005,
        "Time(s)": 100
    },
    {
        "Altitude(m)": 612171.1211594674,
        "Argument of Periapsis(deg)": 0.0011460840504626045,
        "Eccentricity": 0.0,
        "Inclination(deg)": 60.0,
        "Latitude(deg)": 60.10716906138079,
        "Longitude(deg)": 26.845927472018975,
        "Mean Anomaly(deg)": 88.63936760008013,
        "RAAN(deg)": 39.99537945946283,
        "Satellite Name": "Test1 181",
        "Satellite Number": 181,
        "Semi-Major Axis(m)": 6980739.136638005,
        "Time(s)": 110
    },
    {
        "Altitude(m)": 612175.3319991598,
        "Argument of Periapsis(deg)": 0.0012502735095955685,
        "Eccentricity": 0.0,
        "Inclination(deg)": 60.0,
        "Latitude(deg)": 60.126824307486835,
        "Longitude(deg)": 28.044323731073504,
        "Mean Anomaly(deg)": 89.25947374554195,
        "RAAN(deg)": 39.99495941032309,
        "Satellite Name": "Test1 181",
        "Satellite Number": 181,
        "Semi-Major Axis(m)": 6980739.136638005,
        "Time(s)": 120
    },
    {
        "Altitude(m)": 612177.0992979292,
        "Argument of Periapsis(deg)": 0.0013544629687285324,
        "Eccentricity": 0.0,
        "Inclination(deg)": 60.0,
        "Latitude(deg)": 60.13486647369022,
        "Longitude(deg)": 29.24376158280565,
        "Mean Anomaly(deg)": 89.87957989100379,
        "RAAN(deg)": 39.99453936118334,
        "Satellite Name": "Test1 181",
        "Satellite Number": 181,
        "Semi-Major Axis(m)": 6980739.136638005,
        "Time(s)": 130
    },
    {
        "Altitude(m)": 612176.4220773015,
        "Argument of Periapsis(deg)": 0.0014586524278614966,
        "Eccentricity": 0.0,
        "Inclination(deg)": 60.0,
        "Latitude(deg)": 60.131286174403925,
        "Longitude(deg)": 30.443367315133585,
        "Mean Anomaly(deg)": 90.49968603646563,
        "RAAN(deg)": 39.9941193120436,
        "Satellite Name": "Test1 181",
        "Satellite Number": 181,
        "Semi-Major Axis(m)": 6980739.136638005,
        "Time(s)": 140
    },
    {
        "Altitude(m)": 612173.3007602206,
        "Argument of Periapsis(deg)": 0.0015628418869944607,
        "Eccentricity": 0.0,
        "Inclination(deg)": 60.0,
        "Latitude(deg)": 60.11608759035804,
        "Longitude(deg)": 31.642266428601324,
        "Mean Anomaly(deg)": 91.11979218192745,
        "RAAN(deg)": 39.99369926290386,
        "Satellite Name": "Test1 181",
        "Satellite Number": 181,
        "Semi-Major Axis(m)": 6980739.136638005,
        "Time(s)": 150
    },
    {
        "Altitude(m)": 612167.7371708498,
        "Argument of Periapsis(deg)": 0.0016670313461274247,
        "Eccentricity": 0.0,
        "Inclination(deg)": 60.0,
        "Latitude(deg)": 60.08928844428007,
        "Longitude(deg)": 32.83958823895546,
        "Mean Anomaly(deg)": 91.7398983273893,
        "RAAN(deg)": 39.99327921376412,
        "Satellite Name": "Test1 181",
        "Satellite Number": 181,
        "Semi-Major Axis(m)": 6980739.136638005,
        "Time(s)": 160
    },
    {
        "Altitude(m)": 612159.7345337133,
        "Argument of Periapsis(deg)": 0.0017712208052603888,
        "Eccentricity": 0.0,
        "Inclination(deg)": 60.0,
        "Latitude(deg)": 60.05091989800638,
        "Longitude(deg)": 34.0344689283737,
        "Mean Anomaly(deg)": 92.36000447285112,
        "RAAN(deg)": 39.99285916462437,
        "Satellite Name": "Test1 181",
        "Satellite Number": 181,
        "Semi-Major Axis(m)": 6980739.136638005,
        "Time(s)": 170
    },
    {
        "Altitude(m)": 612149.29747217,
        "Argument of Periapsis(deg)": 0.001875410264393353,
        "Eccentricity": 0.0,
        "Inclination(deg)": 60.0,
        "Latitude(deg)": 60.00102637242144,
        "Longitude(deg)": 35.22605602429723,
        "Mean Anomaly(deg)": 92.98011061831295,
        "RAAN(deg)": 39.99243911548463,
        "Satellite Name": "Test1 181",
        "Satellite Number": 181,
        "Semi-Major Axis(m)": 6980739.136638005,
        "Time(s)": 180
    },
    {
        "Altitude(m)": 612136.4320062284,
        "Argument of Periapsis(deg)": 0.0019795997235263173,
        "Eccentricity": 0.0,
        "Inclination(deg)": 60.0,
        "Latitude(deg)": 59.93966529264234,
        "Longitude(deg)": 36.41351274802533,
        "Mean Anomaly(deg)": 93.60021676377477,
        "RAAN(deg)": 39.99201906634489,
        "Satellite Name": "Test1 181",
        "Satellite Number": 181,
        "Semi-Major Axis(m)": 6980739.136638005,
        "Time(s)": 190
    }
]